{
    "links": {
        "self": "http://www.neowsapp.com/rest/v1/neo/3842938?api_key=iIulBulltgU6a56xZRHN4H3l9WmuAYTsLGpBGhQ2"
    },
    "id": "3842938",
    "neo_reference_id": "3842938",
    "name": "(2019 ME1)",
    "designation": "2019 ME1",
    "nasa_jpl_url": "http://ssd.jpl.nasa.gov/sbdb.cgi?sstr=3842938",
    "absolute_magnitude_h": 21.7,
    "estimated_diameter": {
        "kilometers": {
            "estimated_diameter_min": 0.1214940408,
            "estimated_diameter_max": 0.2716689341
        },
        "meters": {
            "estimated_diameter_min": 121.4940407996,
            "estimated_diameter_max": 271.6689340891
        },
        "miles": {
            "estimated_diameter_min": 0.0754928736,
            "estimated_diameter_max": 0.1688071972
        },
        "feet": {
            "estimated_diameter_min": 398.6025088171,
            "estimated_diameter_max": 891.3023057169
        }
    },
    "is_potentially_hazardous_asteroid": false,
    "close_approach_data": [
        {
            "close_approach_date": "1918-11-16",
            "close_approach_date_full": "1918-Nov-16 05:10",
            "epoch_date_close_approach": -1613415000000,
            "relative_velocity": {
                "kilometers_per_second": "26.2457796647",
                "kilometers_per_hour": "94484.806792988",
                "miles_per_hour": "58709.1845320097"
            },
            "miss_distance": {
                "astronomical": "0.4446077708",
                "lunar": "172.9524228412",
                "kilometers": "66512375.497128196",
                "miles": "41328873.6885772648"
            },
            "orbiting_body": "Earth"
        },
        {
            "close_approach_date": "2016-04-11",
            "close_approach_date_full": "2016-Apr-11 04:08",
            "epoch_date_close_approach": 1460347680000,
            "relative_velocity": {
                "kilometers_per_second": "8.2499171215",
                "kilometers_per_hour": "29699.701637261",
                "miles_per_hour": "18454.239608997"
            },
            "miss_distance": {
                "astronomical": "0.1458728707",
                "lunar": "56.7445467023",
                "kilometers": "21822270.747505409",
                "miles": "13559730.2694522842"
            },
            "orbiting_body": "Venus"
        },
        {
            "close_approach_date": "2019-07-20",
            "close_approach_date_full": "2019-Jul-20 19:26",
            "epoch_date_close_approach": 1563650760000,
            "relative_velocity": {
                "kilometers_per_second": "12.6507188218",
                "kilometers_per_hour": "45542.5877585797",
                "miles_per_hour": "28298.3929325464"
            },
            "miss_distance": {
                "astronomical": "0.1104530159",
                "lunar": "42.9662231851",
                "kilometers": "16523535.913716133",
                "miles": "10267249.1181153154"
            },
            "orbiting_body": "Earth"
        },
        {
            "close_approach_date": "2028-02-03",
            "close_approach_date_full": "2028-Feb-03 10:40",
            "epoch_date_close_approach": 1833187200000,
            "relative_velocity": {
                "kilometers_per_second": "3.2607009457",
                "kilometers_per_hour": "11738.523404411",
                "miles_per_hour": "7293.8619453686"
            },
            "miss_distance": {
                "astronomical": "1.925167001",
                "lunar": "748.889963389",
                "kilometers": "288000882.74388787",
                "miles": "178955450.262557806"
            },
            "orbiting_body": "Juptr"
        },
        {
            "close_approach_date": "2029-10-31",
            "close_approach_date_full": "2029-Oct-31 14:08",
            "epoch_date_close_approach": 1888150080000,
            "relative_velocity": {
                "kilometers_per_second": "17.8570779018",
                "kilometers_per_hour": "64285.4804464105",
                "miles_per_hour": "39944.4975584932"
            },
            "miss_distance": {
                "astronomical": "0.1836796308",
                "lunar": "71.4513763812",
                "kilometers": "27478081.530066396",
                "miles": "17074088.1267964248"
            },
            "orbiting_body": "Earth"
        }
    ],
    "orbital_data": {
        "orbit_id": "6",
        "orbit_determination_date": "2019-07-15 05:56:44",
        "first_observation_date": "2019-05-30",
        "last_observation_date": "2019-07-14",
        "data_arc_in_days": 45,
        "observations_used": 73,
        "orbit_uncertainty": "6",
        "minimum_orbit_intersection": ".092446",
        "jupiter_tisserand_invariant": "3.343",
        "epoch_osculation": "2459000.5",
        "eccentricity": ".6154806444231544",
        "semi_major_axis": "2.245442786893503",
        "inclination": "7.684214218368054",
        "ascending_node_longitude": "161.00320025224",
        "orbital_period": "1228.998683493655",
        "perihelion_distance": ".8634162134009662",
        "perihelion_argument": "177.8670898676922",
        "aphelion_distance": "3.627469360386041",
        "perihelion_time": "2458714.829049916832",
        "mean_anomaly": "83.67913115870432",
        "mean_motion": ".2929213878216971",
        "equinox": "J2000",
        "orbit_class": {
            "orbit_class_type": "APO",
            "orbit_class_description": "Near-Earth asteroid orbits which cross the Earth’s orbit similar to that of 1862 Apollo",
            "orbit_class_range": "a (semi-major axis) > 1.0 AU; q (perihelion) < 1.017 AU"
        }
    },
    "is_sentry_object": false
}